STARLINK-4332           
1 53190U 22084B   25077.15755112  .00001848  00000+0  14841-3 0  9993
2 53190  97.6553 140.0576 0001558  89.6846 270.4556 15.01265586146209
STARLINK-4369           
1 53191U 22084C   25077.11866220 -.00001028  00000+0 -75378-4 0  9998
2 53191  97.6569 140.0396 0001832  78.4181 281.7249 15.01286773146193
STARLINK-4375           
1 53192U 22084D   25076.91685513  .00002151  00000+0  17201-3 0  9996
2 53192  97.6567 139.8412 0002050  89.5725 270.5734 15.01263043146456
STARLINK-4351           
1 53193U 22084E   25076.72245301  .00001298  00000+0  10566-3 0  9991
2 53193  97.6586 139.6440 0001575  86.1597 273.9807 15.01261426146774
STARLINK-4382           
1 53194U 22084F   25076.72060302 -.00000499  00000+0 -34277-4 0  9998
2 53194  97.6570 139.6432 0001492  81.1445 278.9948 15.01252043145757
STARLINK-4404           
1 53195U 22084G   25077.17420986  .00000248  00000+0  23919-4 0  9998
2 53195  97.6540 140.1101 0002436 101.0209 259.1289 15.01271989146204
STARLINK-4407           
1 53196U 22084H   25077.17605496  .00000148  00000+0  16115-4 0  9999
2 53196  97.6550 140.1128 0001714  98.5365 261.6053 15.01269035146202
STARLINK-4403           
1 53197U 22084J   25076.91130472  .00000677  00000+0  57313-4 0  9990
2 53197  97.6547 139.8358 0002054  89.4046 270.7413 15.01253057145782
STARLINK-4385           
1 53198U 22084K   25076.71502689  .00004017  00000+0  31699-3 0  9992
2 53198  97.6561 139.6432 0001834 105.6263 254.5163 15.01284348146417
STARLINK-4395           
1 53199U 22084L   25077.17975855  .00001571  00000+0  12687-3 0  9991
2 53199  97.6561 140.0930 0001990  91.1119 269.0333 15.01267429146207
STARLINK-4417           
1 53200U 22084M   25076.90970920 -.00000860  00000+0 -62400-4 0  9993
2 53200  97.6547 139.8415 0001962  94.6802 265.4647 15.01248071146440
STARLINK-4405           
1 53201U 22084N   25077.16704381  .00001161  00000+0  94944-4 0  9990
2 53201  97.6546 140.0915 0002724  88.8261 271.3276 15.01265788146202
STARLINK-4411           
1 53202U 22084P   25076.70579136  .00001099  00000+0  90175-4 0  9990
2 53202  97.6534 139.6390 0002297  86.9581 273.1906 15.01261469145751
STARLINK-4409           
1 53203U 22084Q   25077.16865201  .00002257  00000+0  18021-3 0  9999
2 53203  97.6543 140.0828 0002945  62.9231 297.2294 15.01276425146206
STARLINK-4410           
1 53204U 22084R   25077.17259705  .00001674  00000+0  13490-3 0  9994
2 53204  97.6535 140.0948 0002128  79.3462 280.8001 15.01267963146203
STARLINK-4397           
1 53205U 22084S   25077.16494690  .00000830  00000+0  69192-4 0  9992
2 53205  97.6546 140.0766 0001676  72.3294 287.8113 15.01265481146201
STARLINK-4408           
1 53206U 22084T   25076.75392165  .00000690  00000+0  58333-4 0  9990
2 53206  97.6552 139.7017 0000737  96.0327 264.0981 15.01259681145765
STARLINK-4413           
1 53207U 22084U   25076.69653284  .00001064  00000+0  87402-4 0  9991
2 53207  97.6544 139.6130 0001781  91.9553 268.1875 15.01263070145750
STARLINK-4425           
1 53208U 22084V   25077.17050368  .00000863  00000+0  71752-4 0  9997
2 53208  97.6539 140.0853 0002403  85.9608 274.1891 15.01265262146200
STARLINK-4423           
1 53209U 22084W   25077.16150654 -.00001220  00000+0 -90429-4 0  9998
2 53209  97.6549 140.0709 0002133  89.1976 270.9493 15.01249305146208
STARLINK-4427           
1 53210U 22084X   25077.16679982  .00000738  00000+0  62045-4 0  9994
2 53210  97.6544 140.0789 0002596  89.3420 270.8102 15.01266445146202
STARLINK-4419           
1 53211U 22084Y   25077.15593405  .00000422  00000+0  37442-4 0  9992
2 53211  97.6552 140.0685 0001499  94.2570 265.8825 15.01263581146203
STARLINK-4416           
1 53212U 22084Z   25077.16124313  .00001423  00000+0  11535-3 0  9998
2 53212  97.6549 140.0704 0001899  67.6421 292.5004 15.01268118146202
STARLINK-4414           
1 53213U 22084AA  25077.15198129  .00004268  00000+0  33661-3 0  9998
2 53213  97.6553 140.0594 0000760  97.6078 262.5233 15.01263935146205
STARLINK-4353           
1 53214U 22084AB  25077.15938999  .00003935  00000+0  31080-3 0  9999
2 53214  97.6556 140.0682 0001838  82.3381 277.8052 15.01261585146209
STARLINK-4335           
1 53215U 22084AC  25077.15014093  .00002234  00000+0  17842-3 0  9991
2 53215  97.6550 140.0570 0000595 215.1922 144.9263 15.01266719146208
STARLINK-4376           
1 53216U 22084AD  25077.15568755  .00000967  00000+0  79861-4 0  9992
2 53216  97.6555 140.0637 0001010  99.6955 260.4384 15.01265508146205
STARLINK-4379           
1 53217U 22084AE  25076.93191715  .00008539  00000+0  66833-3 0  9993
2 53217  97.6570 139.8759 0000926 191.9590 168.1613 15.01276610145798
STARLINK-4384           
1 53218U 22084AF  25076.74120111  .00000965  00000+0  79713-4 0  9992
2 53218  97.6557 139.6814 0003008 214.0906 146.0125 15.01259451146288
STARLINK-4373           
1 53219U 22084AG  25076.74281448 -.00000582  00000+0 -40726-4 0  9993
2 53219  97.6553 139.6543 0002632 212.6739 147.4323 15.01250257145766
STARLINK-4363           
1 53220U 22084AH  25076.74836954  .00001466  00000+0  11869-3 0  9998
2 53220  97.6545 139.6605 0001431 212.4023 147.7113 15.01260890145773
STARLINK-4377           
1 53221U 22084AJ  25077.14086601 -.00003609  00000+0 -27645-3 0  9992
2 53221  97.6553 140.0482 0003826 200.1712 159.9361 15.01258211145821
STARLINK-4381           
1 53222U 22084AK  25077.25002315  .01290991  00000+0  84378-2 0  9991
2 53222  97.6499 142.2455 0001472  84.9928 258.1994 15.73179386146343
STARLINK-4356           
1 53224U 22084AM  25076.74466180  .00000930  00000+0  76967-4 0  9998
2 53224  97.6553 139.6558 0002269 218.6024 141.5038 15.01260723145764
STARLINK-4358           
1 53225U 22084AN  25077.13531794  .00001258  00000+0  10250-3 0  9993
2 53225  97.6564 140.0411 0002405 174.1846 185.9407 15.01268740145827
STARLINK-4359           
1 53226U 22084AP  25077.13347031  .00003995  00000+0  31538-3 0  9995
2 53226  97.6557 140.0528 0001635 150.4773 209.6543 15.01270523145837
STARLINK-4366           
1 53227U 22084AQ  25077.12418454  .00006057  00000+0  47548-3 0  9993
2 53227  97.6570 140.0389 0000809 101.8293 258.3022 15.01280883145829
STARLINK-4365           
1 53228U 22084AR  25076.73725833  .00001334  00000+0  10842-3 0  9992
2 53228  97.6560 139.6483 0003483 189.7399 170.3758 15.01261984145764
STARLINK-4367           
1 53229U 22084AS  25076.73171173  .00000939  00000+0  77684-4 0  9993
2 53229  97.6564 139.6440 0000769 137.0248 223.1036 15.01261100145761
STARLINK-4364           
1 53230U 22084AT  25077.13900239  .00001508  00000+0  12195-3 0  9991
2 53230  97.6550 140.0319 0001311 236.6142 123.4957 15.01274070146206
STARLINK-4370           
1 53231U 22084AU  25077.12791529  .00001090  00000+0  89463-4 0  9990
2 53231  97.6569 140.0369 0001044 121.3790 238.7536 15.01266671145822
STARLINK-4371           
1 53232U 22084AV  25077.12976585  .00001299  00000+0  10566-3 0  9996
2 53232  97.6567 140.0370 0001397 134.9896 225.1441 15.01270125145825
STARLINK-4372           
1 53233U 22084AW  25076.92450297  .00002284  00000+0  18233-3 0  9995
2 53233  97.6587 139.8436 0001524  89.3443 270.7956 15.01266491145794
STARLINK-4368           
1 53234U 22084AX  25077.12606499  .00002012  00000+0  16116-3 0  9993
2 53234  97.6577 140.0328 0000089 159.6478 200.4749 15.01268362145836
STARLINK-4056           
1 53242U 22086A   25077.06709332  .00003229  00000+0  22074-3 0  9998
2 53242  53.2186   0.0491 0001541  98.4002 261.7165 15.08860141146970
STARLINK-4047           
1 53243U 22086B   25077.10519784  .00009133  00000+0  59029-3 0  9994
2 53243  53.2196   4.5794 0001202  95.2115 264.9014 15.08896022146910
STARLINK-4125           
1 53244U 22086C   25076.79985554  .00001698  00000+0  12473-3 0  9991
2 53244  53.2177   6.3377 0001309  79.1021 281.0119 15.08839336147363
STARLINK-4131           
1 53246U 22086E   25076.79616512  .00008998  00000+0  58256-3 0  9997
2 53246  53.2174   6.2782 0001353  92.0486 268.0661 15.08850248146865
STARLINK-4061           
1 53247U 22086F   25077.21432082  .00005562  00000+0  36712-3 0  9991
2 53247  53.2179 359.5791 0001447  98.0575 262.0582 15.08853548146990
STARLINK-4135           
1 53248U 22086G   25077.07079313  .00005977  00000+0  39317-3 0  9994
2 53248  53.2189   0.1520 0001355  85.6721 274.4426 15.08851960146972
STARLINK-4128           
1 53249U 22086H   25077.14028149  .00002780  00000+0  19275-3 0  9994
2 53249  53.2208 354.7458 0001710  96.7387 263.3800 15.08833395147054
STARLINK-4059           
1 53250U 22086J   25077.14299235  .00002724  00000+0  18910-3 0  9995
2 53250  53.2183 354.7173 0001221 105.9028 254.2099 15.08852156147059
STARLINK-4129           
1 53251U 22086K   25077.13196200  .00002010  00000+0  14434-3 0  9998
2 53251  53.2189 354.7670 0001429 102.4859 257.6293 15.08840042147056
STARLINK-4132           
1 53252U 22086L   25076.93691713  .00001397  00000+0  10582-3 0  9992
2 53252  53.2193 355.5949 0001324 100.0769 260.0373 15.08837599147227
STARLINK-4133           
1 53253U 22086M   25076.99580157  .00001975  00000+0  14210-3 0  9992
2 53253  53.2189 355.3854 0001559  99.6312 260.4857 15.08845616147032
STARLINK-4134           
1 53254U 22086N   25077.20281099  .00006104  00000+0  40088-3 0  9992
2 53254  53.2180 354.4530 0001441  96.0316 264.0840 15.08875757147064
STARLINK-4142           
1 53255U 22086P   25077.05470637 -.00000172  00000+0  72950-5 0  9999
2 53255  53.2209 355.1172 0001767 123.0293 237.0869 15.08824451147047
STARLINK-4147           
1 53256U 22086Q   25076.92588369  .00011437  00000+0  73523-3 0  9997
2 53256  53.2180 355.6937 0001334  84.7910 275.3234 15.08853485147207
STARLINK-4144           
1 53257U 22086R   25076.91116269  .00006893  00000+0  45068-3 0  9996
2 53257  53.2208 355.7615 0001683  91.2875 268.8310 15.08844535147201
